GSAT0101 (PRN E11)      
1 37846U 11060A   24041.26110608 -.00000078  00000+0  00000+0 0  9995
2 37846  57.1261   4.9938 0003699 345.1252  14.8485  1.70475663 76499
GSAT0102 (PRN E12)      
1 37847U 11060B   24040.88836406 -.00000077  00000+0  00000+0 0  9993
2 37847  57.1263   5.0039 0005191 326.6095 210.5432  1.70475083 76497
GSAT0103 (PRN E19)      
1 38857U 12055A   24041.88699030  .00000001  00000+0  00000+0 0  9997
2 38857  55.3486 125.1051 0004633 259.3993 100.5949  1.70473386 70391
GSAT0104 (PRN E20)      
1 38858U 12055B   24041.85624368  .00000001  00000+0  00000+0 0  9997
2 38858  55.3479 125.1075 0002109 241.3225 118.7025  1.70473628 70390
GSAT0201 (PRN E18)      
1 40128U 14050A   24037.03421368 -.00000047  00000+0  00000+0 0  9998
2 40128  49.7884 308.3720 1605831 146.1591 225.2380  1.85519517 62328
GSAT0202 (PRN E14)      
1 40129U 14050B   24042.14393043 -.00000051  00000+0  00000+0 0  9990
2 40129  49.8009 307.2413 1604354 147.1488 223.9515  1.85520157 64588
GSAT0203 (PRN E26)      
1 40544U 15017A   24042.21347691 -.00000082  00000+0  00000+0 0  9995
2 40544  56.9216   4.9192 0004819 284.1849  75.7459  1.70475726 54590
GSAT0204 (PRN E22)      
1 40545U 15017B   24041.29434400 -.00000079  00000+0  00000+0 0  9994
2 40545  56.9276   4.9592 0004392 272.2549  87.6797  1.70475280 17627
GSAT0205 (PRN E24)      
1 40889U 15045A   24041.64957380  .00000067  00000+0  00000+0 0  9998
2 40889  55.2796 245.2927 0006482  39.5385 320.5465  1.70473269 52392
GSAT0206 (PRN E30)      
1 40890U 15045B   24040.69705305  .00000075  00000+0  00000+0 0  9991
2 40890  55.2788 245.3146 0004378  40.4831 319.5958  1.70473330 52404
GSAT0209 (PRN E09)      
1 41174U 15079A   24042.62705504  .00000001  00000+0  00000+0 0  9999
2 41174  55.3669 124.7929 0003250 307.1202  52.9003  1.70474683 50174
GSAT0208 (PRN E08)      
1 41175U 15079B   24041.67357891  .00000001  00000+0  00000+0 0  9996
2 41175  55.3656 124.8171 0002862 301.0536  58.9642  1.70474630 50573
GSAT0211 (PRN E02)      
1 41549U 16030A   24040.03619598  .00000081  00000+0  00000+0 0  9991
2 41549  55.4269 245.3302 0004208  15.8307 344.2344  1.70473342 48022
GSAT0210 (PRN E01)      
1 41550U 16030B   24041.50061167  .00000068  00000+0  00000+0 0  9994
2 41550  55.4259 245.2909 0001797   0.4596 359.5797  1.70473522 48026
GSAT0207 (PRN E07)      
1 41859U 16069A   24041.74762107  .00000000  00000+0  00000+0 0  9992
2 41859  55.0307 124.8498 0003983 287.4890  72.5134  1.70474652 44787
GSAT0212 (PRN E03)      
1 41860U 16069B   24041.60206350  .00000000  00000+0  00000+0 0  9992
2 41860  55.0282 124.8505 0001873 319.1709  40.8602  1.70475007 45030
GSAT0213 (PRN E04)      
1 41861U 16069C   24039.62307185 -.00000005  00000+0  00000+0 0  9996
2 41861  55.0296 124.9119 0004374 266.5245  93.4575  1.70473374 44865
GSAT0214 (PRN E05)      
1 41862U 16069D   24040.94266928 -.00000001  00000+0  00000+0 0  9999
2 41862  55.0273 124.8692 0003051 258.2417 101.7651  1.70465146 45010
GSAT0215 (PRN E21)      
1 43055U 17079A   24041.43204452  .00000069  00000+0  00000+0 0  9999
2 43055  55.4034 245.1153 0001381  15.6444 344.3993  1.70474075 38368
GSAT0216 (PRN E25)      
1 43056U 17079B   24039.96411100  .00000082  00000+0  00000+0 0  9990
2 43056  55.4048 245.1556 0002248 330.1706  29.8686  1.70474216 38350
GSAT0217 (PRN E27)      
1 43057U 17079C   24041.94425298  .00000065  00000+0  00000+0 0  9996
2 43057  55.4011 245.0999 0002742 354.0945   5.9369  1.70474149 38370
GSAT0218 (PRN E31)      
1 43058U 17079D   24042.16427581  .00000063  00000+0  00000+0 0  9997
2 43058  55.4009 245.0912 0002278 315.2287  44.7855  1.70474149 38400
GSAT0221 (PRN E15)      
1 43564U 18060A   24042.06397552 -.00000081  00000+0  00000+0 0  9994
2 43564  57.3017   4.8917 0005681 293.9437  65.9808  1.70475349 34556
GSAT0222 (PRN E33)      
1 43565U 18060B   24040.52253454 -.00000076  00000+0  00000+0 0  9990
2 43565  57.3034   4.9347 0004379 272.4611  87.4744  1.70475073 34577
GSAT0219 (PRN E36)      
1 43566U 18060C   24041.91780035 -.00000080  00000+0  00000+0 0  9990
2 43566  57.3041   4.8992 0005056 302.5376  57.3976  1.70475341 34578
GSAT0220 (PRN E13)      
1 43567U 18060D   24041.55173767 -.00000079  00000+0  00000+0 0  9997
2 43567  57.3039   4.9092 0005133 296.6845  63.2472  1.70475060 34540
GSAT0223 (PRN E34)      
1 49809U 21116A   24041.99098748 -.00000081  00000+0  00000+0 0  9994
2 49809  57.2953   4.7925 0002444 264.5800  95.2977  1.70475187 13563
GSAT0224 (PRN E10)      
1 49810U 21116B   24042.39172192 -.00000082  00000+0  00000+0 0  9998
2 49810  57.2961   4.7799 0001970 280.1518  78.1594  1.70475193 13591
